CUTE-1 (CO-55)          
1 27844U 03031E   15119.51459097  .00000304  00000-0  15810-3 0  9994
2 27844  98.6962 128.7350 0010951  82.8214  70.5278 14.21777832613522
CUBESAT XI-IV (CO-57)   
1 27848U 03031J   15120.50737919  .00000238  00000-0  12873-3 0  9993
2 27848  98.7059 129.5961 0010863  86.9609  64.7003 14.21428506613573
CUBESAT XI-V (CO-58)    
1 28895U 05043F   15120.51424301  .00000857  00000-0  17648-3 0  9992
2 28895  97.8223 310.7790 0018534  88.2093 272.1232 14.62710523506622
NTS (CANX-6)            
1 32784U 08021B   15120.44551876  .00001235  00000-0  14885-3 0  9994
2 32784  97.6530 163.2317 0013636 222.0699 252.7818 14.85487890378979
CUTE-1.7+APD II (CO-65) 
1 32785U 08021C   15120.19848288  .00001534  00000-0  17817-3 0  9993
2 32785  97.6540 165.5207 0012539 219.6934 216.3961 14.86721650379106
COMPASS-1               
1 32787U 08021E   15120.41216521  .00003195  00000-0  33282-3 0  9998
2 32787  97.6563 169.5463 0012746 204.9969 155.0633 14.90440753379399
AAUSAT-II               
1 32788U 08021F   15119.43274957  .00003623  00000-0  36735-3 0  9998
2 32788  97.6576 170.0282 0012105 204.8101 155.2537 14.91446819379335
DELFI-C3 (DO-64)        
1 32789U 08021G   15120.14166212  .00006806  00000-0  56273-3 0  9998
2 32789  97.6805 180.9143 0010696 176.3843 236.0365 14.99201809379889
CANX-2                  
1 32790U 08021H   15120.12169804  .00001523  00000-0  17770-3 0  9998
2 32790  97.6495 164.4568 0013166 221.3520 195.4886 14.86536087379052
SEEDS II (CO-66)        
1 32791U 08021J   15120.09956186  .00001996  00000-0  21996-3 0  9991
2 32791  97.6558 167.2325 0013217 212.9382 147.1013 14.88557776379162
SWISSCUBE               
1 35932U 09051B   15120.32003393  .00000943  00000-0  22824-3 0  9996
2 35932  98.4022 238.7491 0008922 123.4819 236.7232 14.55328396297001
BEESAT                  
1 35933U 09051C   15120.31763678  .00000821  00000-0  19924-3 0  9997
2 35933  98.4031 239.6426 0006910 133.8363 226.3406 14.55527838297093
ITUPSAT 1               
1 35935U 09051E   15119.81667899  .00000785  00000-0  19393-3 0  9999
2 35935  98.4135 239.3806 0009324 127.8360 232.3681 14.54770919296899
TISAT 1                 
1 36799U 10035E   15120.49348161  .00002580  00000-0  28517-3 0  9999
2 36799  98.0132 220.3305 0012897   9.7813 121.4208 14.88248367259868
M-CUBED & EXP-1 PRIME   
1 37855U 11061F   15120.45753236  .00008238  00000-0  49680-3 0  9992
2 37855 101.7179 310.0233 0198152 212.6470 146.2361 14.96282473190016
AAUSAT3                 
1 39087U 13009B   15120.77324798  .00000848  00000-0  31259-3 0  9999
2 39087  98.6069 319.3437 0013711  88.8356 271.4376 14.35067544113855
STRAND-1                
1 39090U 13009E   15119.76817930  .00000210  00000-0  89620-4 0  9994
2 39090  98.6121 318.8299 0010412  89.3838 270.8540 14.34772737113700
BRITE-AUSTRIA           
1 39091U 13009F   15120.10401737  .00000154  00000-0  69716-4 0  9990
2 39091  98.6067 318.8539 0011714  96.1390 264.1130 14.34870254113773
UNIBRITE                
1 39092U 13009G   15120.17396429  .00000148  00000-0  67981-4 0  9994
2 39092  98.6068 318.7382 0010599  89.5326 270.7074 14.34743360113772
AIST-2                  
1 39133U 13015D   15120.72569412  .00002852  00000-0  22198-3 0  9996
2 39133  64.8765 223.5801 0036086 248.2402 111.4854 15.02832809111255
SOMP                    
1 39134U 13015E   15120.65618323  .00009699  00000-0  56154-3 0  9990
2 39134  64.8750 209.5228 0032636 256.3851 103.4141 15.11530726111514
BEESAT-2                
1 39136U 13015G   15120.66186456  .00004135  00000-0  24952-3 0  9991
2 39136  64.8738 211.5289 0033541 257.7502 102.0365 15.10011078111488
NEE-01 PEGASUS          
1 39151U 13018B   15120.45950504  .00001236  00000-0  17497-3 0  9996
2 39151  98.0172 204.7881 0018464  51.2511 309.0346 14.78774685108412
CUBEBUG-1 (CAPITAN BETO)
1 39153U 13018D   15120.46166268  .00001427  00000-0  19939-3 0  9990
2 39153  98.0175 204.9655 0018307  50.9657 309.3180 14.79097795108422
ESTCUBE 1               
1 39161U 13021C   15120.79404952  .00001807  00000-0  30198-3 0  9996
2 39161  98.0712 204.1383 0010956 103.2040 257.0343 14.71066534106278
POPACS 1                
1 39268U 13055D   15120.20994815  .00017551  00000-0  55248-3 0  9995
2 39268  81.0080  93.9487 0704537 324.9808  30.6881 14.17915316 81224
POPACS 2                
1 39269U 13055E   15120.63504657  .00011887  00000-0  37196-3 0  9992
2 39269  81.0180  96.2469 0736820 332.2413  24.1172 14.11232523 81100
POPACS 3                
1 39270U 13055F   15120.26749561  .00010731  00000-0  35247-3 0  9990
2 39270  81.0003  98.0535 0750751 337.9953  19.0475 14.07231139 80958
PHONESAT 2.4            
1 39381U 13064B   15119.15935223  .00026014  00000-0  61053-3 0  9996
2 39381  40.5000  36.8866 0013302 276.5975  83.3830 15.41071938 80396
ORSES                   
1 39386U 13064G   15120.76589216  .00038686  00000-0  67440-3 0  9991
2 39386  40.4963  14.4220 0014699 284.6034  75.3658 15.49697087 80475
PROMETHEUS 1-4          
1 39390U 13064L   15120.09811266  .00053749  00000-0  87972-3 0  9994
2 39390  40.4968  16.3404 0015829 283.5695  76.3361 15.51471852 79874
PROMETHEUS 1-2          
1 39391U 13064M   15120.09335548  .00050484  00000-0  82238-3 0  9992
2 39391  40.4969  16.3055 0015817 283.8225  76.0835 15.51624434 78639
PROMETHEUS 1-5          
1 39393U 13064P   15120.10225073  .00053241  00000-0  83730-3 0  9999
2 39393  40.5158  15.3888 0016106 290.2086  69.7002 15.52579313 79850
PROMETHEUS 1-6          
1 39394U 13064Q   15120.07567688  .00050037  00000-0  81377-3 0  9992
2 39394  40.5139  16.9283 0016261 288.3916  71.5135 15.51665640 79809
FIREFLY                 
1 39404U 13064AA  15119.17098474  .00020674  00000-0  52430-3 0  9997
2 39404  40.5146  40.4509 0009874 267.0155  92.9530 15.39116087 79799
VERMONT LUNAR           
1 39407U 13064AD  15120.14419910  .00056486  00000-0  87424-3 0  9992
2 39407  40.5186  14.9683 0015783 285.1450  74.7624 15.53007342 78497
PROMETHEUS 1-3          
1 39408U 13064AE  15120.12736112  .00053354  00000-0  86366-3 0  9992
2 39408  40.4974  15.6984 0015586 285.3507  74.5590 15.51786445 80590
ZACUBE-1 (TSHEPISOSAT)  
1 39417U 13066B   15120.18380540  .00001289  00000-0  17422-3 0  9997
2 39417  97.7340 184.4956 0059213 293.3920  66.1071 14.79559090 77533
WNISAT-1                
1 39423U 13066H   15120.78179792  .00000826  00000-0  17498-3 0  9994
2 39423  97.7077 163.0474 0177143 352.0301   7.8077 14.52364057 76225
CINEMA-2 (KHUSAT-2)     
1 39424U 13066J   15120.39980437  .00000832  00000-0  13372-3 0  9992
2 39424  97.7250 178.0636 0093010 309.0212  50.2742 14.71349530 77141
CINEMA-3 (KHUSAT-2)     
1 39426U 13066L   15119.72151549  .00000684  00000-0  11693-3 0  9992
2 39426  97.7207 175.1349 0104898 317.3490  41.9605 14.68498854 76909
TRITON-1                
1 39427U 13066M   15119.76873333  .00000881  00000-0  15250-3 0  9991
2 39427  97.7200 173.3579 0114983 322.3021  37.0166 14.66535592 76761
GOMX 1                  
1 39430U 13066Q   15120.78909596  .00001605  00000-0  30623-3 0  9996
2 39430  97.7138 167.3118 0153917 339.6650  19.8446 14.57960532 76479
BRITE-PL                
1 39431U 13066R   15120.32595895  .00000481  00000-0  11363-3 0  9991
2 39431  97.7043 157.9921 0203734   7.6712 352.7518 14.46454118 75841
HUMSAT-D                
1 39433U 13066T   15119.48170759  .00003459  00000-0  36905-3 0  9993
2 39433  97.7432 190.9482 0031122 282.7791  76.9949 14.89138232 77867
EAGLE 2                 
1 39436U 13066W   15120.14975136  .00022428  00000-0  15925-2 0  9998
2 39436  97.7487 196.0897 0022706 262.7149  97.1496 15.04520645 78268
VELOX-PII               
1 39438U 13066Y   15120.42056048  .00000999  00000-0  14471-3 0  9998
2 39438  97.7309 182.3910 0070853 298.0258  61.3797 14.76588958 77418
CUBEBUG-2 (LO-74)       
1 39440U 13066AA  15119.74813915  .00001192  00000-0  17809-3 0  9992
2 39440  97.7289 179.8211 0080964 304.9211  54.4409 14.74390807 77193
NEE-02 KRYSAOR          
1 39441U 13066AB  15120.11664192  .00000834  00000-0  12847-3 0  9996
2 39441  97.7277 179.9096 0081994 304.4777  54.8705 14.73833811 77198
FUNCUBE-1 (AO-73)       
1 39444U 13066AE  15119.75893208  .00001681  00000-0  22259-3 0  9998
2 39444  97.7345 184.2880 0058615 294.0854  65.4234 14.80052836 76250
UWE-3                   
1 39446U 13066AG  15120.16672354  .00001179  00000-0  16839-3 0  9993
2 39446  97.7310 182.2579 0070490 298.4414  60.9706 14.76883857 76166
BRITE-TORONTO           
1 40020U 14033L   15120.64844684  .00000814  00000-0  14959-3 0  9994
2 40020  97.9395  10.4513 0087275 280.2005  78.9327 14.65936225 46010
DUCHIFAT-1              
1 40021U 14033M   15120.42754977  .00004087  00000-0  45321-3 0  9999
2 40021  97.9578  20.8779 0013673 348.3378  11.7462 14.87774178 46705
NANOSATC-BR1            
1 40024U 14033Q   15120.47207112  .00003324  00000-0  37336-3 0  9991
2 40024  97.9546  20.7524 0012729 348.3780  11.7125 14.87390373 46705
QB50P1                  
1 40025U 14033R   15120.77864270  .00002832  00000-0  32220-3 0  9999
2 40025  97.9561  20.9689 0012911 346.7240  13.3607 14.86978376 46755
FLOCK 1C-7              
1 40026U 14033S   15120.68116532  .00001812  00000-0  20747-3 0  9999
2 40026  97.9635  21.1694 0012233 348.4632  11.6309 14.87190614 46749
FLOCK 1C-1              
1 40027U 14033T   15120.76580708  .00002149  00000-0  24436-3 0  9992
2 40027  97.9611  21.2087 0012987 345.8825  14.2018 14.87268652 46757
POPSAT-HIP-1            
1 40028U 14033U   15120.81245454  .00002571  00000-0  29408-3 0  9998
2 40028  97.9592  21.0680 0014347 344.0247  16.0455 14.86832614 46742
FLOCK 1C-2              
1 40029U 14033V   15120.78023048  .00001975  00000-0  22523-3 0  9996
2 40029  97.9628  21.1791 0014430 341.9628  18.1039 14.87216238 46749
